{
  "type": "FeatureCollection",
  "features": [
    {
      "type": "Feature",
      "properties": {
        "norad_id": 31655,
        "name": "FENGYUN 1C DEB",
        "group": "fengyun-1c-debris",
        "lat": -77.3764163194038,
        "lon": -28.976031828705135,
        "alt_km": 1122.160765084388,
        "timestamp": "2025-12-03T19:33:07.259444+00:00",
        "meta_object_name": "FENGYUN 1C DEB",
        "meta_object_id": "1999-025CBM",
        "meta_epoch": "2025-12-02T03:33:47.704320",
        "meta_mean_motion": 13.63773307,
        "meta_eccentricity": 0.02884116,
        "meta_inclination": 99.2856,
        "meta_ra_of_asc_node": 282.5047,
        "meta_arg_of_pericenter": 165.6221,
        "meta_mean_anomaly": 213.94,
        "meta_ephemeris_type": 0,
        "meta_classification_type": "U",
        "meta_norad_cat_id": 31655,
        "meta_element_set_no": 999,
        "meta_rev_at_epoch": 59575,
        "meta_bstar": 0.002889873,
        "meta_mean_motion_dot": 2.997e-05,
        "meta_mean_motion_ddot": 0,
        "tle_line1": "1 31655U 99025CBM 25336.14846880  .00002997  00000+0  28899-2 0  9997",
        "tle_line2": "2 31655  99.2856 282.5047 0288411 165.6221 213.9400 13.63773307595756"
      },
      "geometry": {
        "type": "Point",
        "coordinates": [
          -28.976031828705135,
          -77.3764163194038
        ]
      }
    },
    {
      "type": "Feature",
      "properties": {
        "norad_id": 31656,
        "name": "FENGYUN 1C DEB",
        "group": "fengyun-1c-debris",
        "lat": -72.85777544379351,
        "lon": 114.17159934081401,
        "alt_km": 759.6390603752388,
        "timestamp": "2025-12-03T19:33:07.259454+00:00",
        "meta_object_name": "FENGYUN 1C DEB",
        "meta_object_id": "1999-025CBN",
        "meta_epoch": "2025-12-03T05:09:50.756256",
        "meta_mean_motion": 14.46757304,
        "meta_eccentricity": 0.0022717,
        "meta_inclination": 99.1936,
        "meta_ra_of_asc_node": 325.1943,
        "meta_arg_of_pericenter": 78.8473,
        "meta_mean_anomaly": 295.9747,
        "meta_ephemeris_type": 0,
        "meta_classification_type": "U",
        "meta_norad_cat_id": 31656,
        "meta_element_set_no": 999,
        "meta_rev_at_epoch": 96318,
        "meta_bstar": 0.0029587,
        "meta_mean_motion_dot": 0.00010706,
        "meta_mean_motion_ddot": 0,
        "tle_line1": "1 31656U 99025CBN 25337.21517079  .00010706  00000+0  29587-2 0  9994",
        "tle_line2": "2 31656  99.1936 325.1943 0022717  78.8473 295.9747 14.46757304963184"
      },
      "geometry": {
        "type": "Point",
        "coordinates": [
          114.17159934081401,
          -72.85777544379351
        ]
      }
    },
    {
      "type": "Feature",
      "properties": {
        "norad_id": 31657,
        "name": "FENGYUN 1C DEB",
        "group": "fengyun-1c-debris",
        "lat": -76.9751025401299,
        "lon": -10.171194723724623,
        "alt_km": 1015.4708147126948,
        "timestamp": "2025-12-03T19:33:07.259463+00:00",
        "meta_object_name": "FENGYUN 1C DEB",
        "meta_object_id": "1999-025CBP",
        "meta_epoch": "2025-12-01T23:19:04.849824",
        "meta_mean_motion": 13.96877363,
        "meta_eccentricity": 0.0144659,
        "meta_inclination": 102.2169,
        "meta_ra_of_asc_node": 236.8704,
        "meta_arg_of_pericenter": 80.0199,
        "meta_mean_anomaly": 281.7242,
        "meta_ephemeris_type": 0,
        "meta_classification_type": "U",
        "meta_norad_cat_id": 31657,
        "meta_element_set_no": 999,
        "meta_rev_at_epoch": 62714,
        "meta_bstar": 0.0034958058,
        "meta_mean_motion_dot": 5.25e-05,
        "meta_mean_motion_ddot": 0,
        "tle_line1": "1 31657U 99025CBP 25335.97158391  .00005250  00000+0  34958-2 0  9990",
        "tle_line2": "2 31657 102.2169 236.8704 0144659  80.0199 281.7242 13.96877363627140"
      },
      "geometry": {
        "type": "Point",
        "coordinates": [
          -10.171194723724623,
          -76.9751025401299
        ]
      }
    },
    {
      "type": "Feature",
      "properties": {
        "norad_id": 31658,
        "name": "FENGYUN 1C DEB",
        "group": "fengyun-1c-debris",
        "lat": 30.44541664556546,
        "lon": 12.721808974080842,
        "alt_km": 1045.3623326003844,
        "timestamp": "2025-12-03T19:33:07.259473+00:00",
        "meta_object_name": "FENGYUN 1C DEB",
        "meta_object_id": "1999-025CBQ",
        "meta_epoch": "2025-11-30T13:35:01.131648",
        "meta_mean_motion": 13.98632883,
        "meta_eccentricity": 0.0215722,
        "meta_inclination": 98.1534,
        "meta_ra_of_asc_node": 184.9954,
        "meta_arg_of_pericenter": 356.7033,
        "meta_mean_anomaly": 3.2699,
        "meta_ephemeris_type": 0,
        "meta_classification_type": "U",
        "meta_norad_cat_id": 31658,
        "meta_element_set_no": 999,
        "meta_rev_at_epoch": 69646,
        "meta_bstar": 0.0024889,
        "meta_mean_motion_dot": 4.324e-05,
        "meta_mean_motion_ddot": 0,
        "tle_line1": "1 31658U 99025CBQ 25334.56598532  .00004324  00000+0  24889-2 0  9993",
        "tle_line2": "2 31658  98.1534 184.9954 0215722 356.7033   3.2699 13.98632883696462"
      },
      "geometry": {
        "type": "Point",
        "coordinates": [
          12.721808974080842,
          30.44541664556546
        ]
      }
    },
    {
      "type": "Feature",
      "properties": {
        "norad_id": 31660,
        "name": "FENGYUN 1C DEB",
        "group": "fengyun-1c-debris",
        "lat": -11.737630883361817,
        "lon": 157.62211365034113,
        "alt_km": 735.9255828143569,
        "timestamp": "2025-12-03T19:33:07.259484+00:00",
        "meta_object_name": "FENGYUN 1C DEB",
        "meta_object_id": "1999-025CBS",
        "meta_epoch": "2025-11-21T18:54:02.073600",
        "meta_mean_motion": 14.27033891,
        "meta_eccentricity": 0.01009939,
        "meta_inclination": 98.5056,
        "meta_ra_of_asc_node": 327.7074,
        "meta_arg_of_pericenter": 242.467,
        "meta_mean_anomaly": 116.6221,
        "meta_ephemeris_type": 0,
        "meta_classification_type": "U",
        "meta_norad_cat_id": 31660,
        "meta_element_set_no": 999,
        "meta_rev_at_epoch": 7617,
        "meta_bstar": 0.00068848685,
        "meta_mean_motion_dot": 1.726e-05,
        "meta_mean_motion_ddot": 0,
        "tle_line1": "1 31660U 99025CBS 25325.78752400  .00001726  00000+0  68849-3 0  9994",
        "tle_line2": "2 31660  98.5056 327.7074 0100993 242.4670 116.6221 14.27033891 76176"
      },
      "geometry": {
        "type": "Point",
        "coordinates": [
          157.62211365034113,
          -11.737630883361817
        ]
      }
    },
    {
      "type": "Feature",
      "properties": {
        "norad_id": 31661,
        "name": "FENGYUN 1C DEB",
        "group": "fengyun-1c-debris",
        "lat": -49.15644475509876,
        "lon": 67.2018024413286,
        "alt_km": 793.8393747576592,
        "timestamp": "2025-12-03T19:33:07.259494+00:00",
        "meta_object_name": "FENGYUN 1C DEB",
        "meta_object_id": "1999-025CBT",
        "meta_epoch": "2025-12-03T04:45:10.658592",
        "meta_mean_motion": 14.25303801,
        "meta_eccentricity": 0.00579002,
        "meta_inclination": 98.8612,
        "meta_ra_of_asc_node": 56.183,
        "meta_arg_of_pericenter": 251.0244,
        "meta_mean_anomaly": 136.3178,
        "meta_ephemeris_type": 0,
        "meta_classification_type": "U",
        "meta_norad_cat_id": 31661,
        "meta_element_set_no": 999,
        "meta_rev_at_epoch": 95577,
        "meta_bstar": 0.0023828369,
        "meta_mean_motion_dot": 5.667e-05,
        "meta_mean_motion_ddot": 0,
        "tle_line1": "1 31661U 99025CBT 25337.19804003  .00005667  00000+0  23828-2 0  9995",
        "tle_line2": "2 31661  98.8612  56.1830 0057900 251.0244 136.3178 14.25303801955774"
      },
      "geometry": {
        "type": "Point",
        "coordinates": [
          67.2018024413286,
          -49.15644475509876
        ]
      }
    },
    {
      "type": "Feature",
      "properties": {
        "norad_id": 31663,
        "name": "FENGYUN 1C DEB",
        "group": "fengyun-1c-debris",
        "lat": -49.0302945881207,
        "lon": -104.8362646923418,
        "alt_km": 551.6679183477354,
        "timestamp": "2025-12-03T19:33:07.259504+00:00",
        "meta_object_name": "FENGYUN 1C DEB",
        "meta_object_id": "1999-025CBV",
        "meta_epoch": "2025-12-03T11:38:28.212000",
        "meta_mean_motion": 14.76310711,
        "meta_eccentricity": 0.0189768,
        "meta_inclination": 98.838,
        "meta_ra_of_asc_node": 244.4812,
        "meta_arg_of_pericenter": 266.7407,
        "meta_mean_anomaly": 91.2075,
        "meta_ephemeris_type": 0,
        "meta_classification_type": "U",
        "meta_norad_cat_id": 31663,
        "meta_element_set_no": 999,
        "meta_rev_at_epoch": 99143,
        "meta_bstar": 0.0005527,
        "meta_mean_motion_dot": 5.081e-05,
        "meta_mean_motion_ddot": 0,
        "tle_line1": "1 31663U 99025CBV 25337.48504875  .00005081  00000+0  55270-3 0  9990",
        "tle_line2": "2 31663  98.8380 244.4812 0189768 266.7407  91.2075 14.76310711991434"
      },
      "geometry": {
        "type": "Point",
        "coordinates": [
          -104.8362646923418,
          -49.0302945881207
        ]
      }
    }
  ]
}